NORAD_CAT_ID,OBJECT_NAME,OBJECT_TYPE,EPOCH,MEAN_MOTION,ECCENTRICITY,INCLINATION,RA_OF_ASC_NODE,ARG_OF_PERICENTER,MEAN_ANOMALY,BSTAR,MEAN_MOTION_DOT,MEAN_MOTION_DDOT,TLE_LINE0,TLE_LINE1,TLE_LINE2,SEMIMAJOR_AXIS,PERIOD,APOGEE,PERIGEE,DECAYED
53250.0,STARLINK-4059,PAYLOAD,2023-01-26 15:25:24,15.08842486,0.0001312,53.2128,263.0171,90.779,269.3352,0.00012162,1.648e-05,0.0,0 STARLINK-4059,1 53250U 22086J   23026.64264029  .00001648  00000-0  12162-3 0  9993,2 53250  53.2128 263.0171 0001312  90.7790 269.3352 15.08842486 29071,6917.8730000000005,95.437,540.645,538.83,0.0
53250.0,STARLINK-4059,PAYLOAD,2023-01-27 00:57:42,15.08850607,0.0001175,53.2115,261.2341,94.1985,265.9142,0.0002689,3.995e-05,0.0,0 STARLINK-4059,1 53250U 22086J   23027.04007519  .00003995  00000-0  26890-3 0  9997,2 53250  53.2115 261.2341 0001175  94.1985 265.9142 15.08850607 29137,6917.848000000001,95.437,540.526,538.9,0.0
53250.0,STARLINK-4059,PAYLOAD,2023-01-27 21:37:43,15.08837092,0.0001348,53.2132,257.3662,90.3557,269.7589,8.103e-05,1.002e-05,0.0,0 STARLINK-4059,1 53250U 22086J   23027.90120314  .00001002  00000-0  81030-4 0  9996,2 53250  53.2132 257.3662 0001348  90.3557 269.7589 15.08837092 29469,6917.889,95.438,540.687,538.822,0.0
53250.0,STARLINK-4059,PAYLOAD,2023-01-28 00:48:30,15.08839212,0.0001296,53.2124,256.7727,83.3767,276.7372,0.00010226,1.34e-05,0.0,0 STARLINK-4059,1 53250U 22086J   23028.03368295  .00001340  00000-0  10226-3 0  9996,2 53250  53.2124 256.7727 0001296  83.3767 276.7372 15.08839212 29286,6917.883000000001,95.438,540.644,538.851,0.0
53250.0,STARLINK-4059,PAYLOAD,2023-01-28 21:28:30,15.08848658,0.0001233,53.2123,252.9066,85.541,274.5723,0.00025685,3.803e-05,0.0,0 STARLINK-4059,1 53250U 22086J   23028.89479955  .00003803  00000-0  25685-3 0  9997,2 53250  53.2123 252.9066 0001233  85.5410 274.5723 15.08848658 29616,6917.854,95.437,540.572,538.866,0.0
53250.0,STARLINK-4059,PAYLOAD,2023-01-29 00:39:16,15.08850584,0.0001222,53.2124,252.312,84.6387,275.4744,0.0003003,4.496e-05,0.0,0 STARLINK-4059,1 53250U 22086J   23029.02727854  .00004496  00000-0  30030-3 0  9996,2 53250  53.2124 252.3120 0001222  84.6387 275.4744 15.08850584 29437,6917.848,95.437,540.558,538.868,0.0
53250.0,STARLINK-4059,PAYLOAD,2023-01-29 14:57:45,15.08830732,0.0001153,53.2116,249.6342,93.4039,266.7085,0.00045468,6.954e-05,0.0,0 STARLINK-4059,1 53250U 22086J   23029.62344587  .00006954  00000-0  45468-3 0  9992,2 53250  53.2116 249.6342 0001153  93.4039 266.7085 15.08830732 29522,6917.909,95.438,540.571,538.976,0.0
53250.0,STARLINK-4059,PAYLOAD,2023-01-29 21:19:18,15.08829109,0.0001288,53.2132,248.4435,97.7802,262.3336,0.00058884,9.093e-05,0.0,0 STARLINK-4059,1 53250U 22086J   23029.88840752  .00009093  00000-0  58884-3 0  9998,2 53250  53.2132 248.4435 0001288  97.7802 262.3336 15.08829109 29767,6917.914,95.438,540.67,538.888,0.0
53250.0,STARLINK-4059,PAYLOAD,2023-01-30 00:30:05,15.08819477,0.0001301,53.2134,247.8498,97.4609,262.6531,0.00063562,9.837e-05,0.0,0 STARLINK-4059,1 53250U 22086J   23030.02089279  .00009837  00000-0  63562-3 0  9990,2 53250  53.2134 247.8498 0001301  97.4609 262.6531 15.08819477 29586,6917.943,95.439,540.708,538.908,0.0
53250.0,STARLINK-4059,PAYLOAD,2023-01-30 14:48:32,15.08838939,0.0001201,53.2121,245.1747,89.4919,270.621,-1.3131e-05,-4.97e-06,0.0,0 STARLINK-4059,1 53250U 22086J   23030.61704269 -.00000497  00000-0 -13131-4 0  9991,2 53250  53.2121 245.1747 0001201  89.4919 270.6210 15.08838939 29671,6917.884,95.438,540.579,538.918,0.0
53250.0,STARLINK-4059,PAYLOAD,2023-01-30 21:10:04,15.08841628,0.0001205,53.2121,243.9852,89.1271,270.986,1.88e-05,1.1e-07,0.0,0 STARLINK-4059,1 53250U 22086J   23030.88200109  .00000011  00000-0  18800-4 0  9992,2 53250  53.2121 243.9852 0001205  89.1271 270.9860 15.08841628 29916,6917.875,95.437,540.574,538.907,0.0
53250.0,STARLINK-4059,PAYLOAD,2023-01-31 14:39:19,15.08835661,0.0001242,53.212,240.714,91.487,268.6264,3.4846e-05,2.67e-06,0.0,0 STARLINK-4059,1 53250U 22086J   23031.61064502  .00000267  00000-0  34846-4 0  9990,2 53250  53.2120 240.7140 0001242  91.4870 268.6264 15.08835661 30028,6917.894,95.438,540.618,538.899,0.0
53250.0,STARLINK-4059,PAYLOAD,2023-01-31 21:00:52,15.08837824,0.0001222,53.2127,239.5244,92.7598,267.3534,9.596e-05,1.24e-05,0.0,0 STARLINK-4059,1 53250U 22086J   23031.87560643  .00001240  00000-0  95960-4 0  9991,2 53250  53.2127 239.5244 0001222  92.7598 267.3534 15.08837824 30068,6917.887,95.438,540.597,538.907,0.0
53250.0,STARLINK-4059,PAYLOAD,2023-01-31 22:36:15,15.08838181,0.0001208,53.2127,239.227,91.6565,268.4566,9.3254e-05,1.197e-05,0.0,0 STARLINK-4059,1 53250U 22086J   23031.94184619  .00001197  00000-0  93254-4 0  9999,2 53250  53.2127 239.2270 0001208  91.6565 268.4566 15.08838181 29871,6917.886,95.438,540.587,538.915,0.0
53250.0,STARLINK-4059,PAYLOAD,2023-02-01 12:54:43,15.08838792,0.0001224,53.2122,236.5503,91.4062,268.707,0.00010985,1.461e-05,0.0,0 STARLINK-4059,1 53250U 22086J   23032.53800629  .00001461  00000-0  10985-3 0  9994,2 53250  53.2122 236.5503 0001224  91.4062 268.7070 15.08838792 30168,6917.884,95.438,540.596,538.902,0.0
53250.0,STARLINK-4059,PAYLOAD,2023-02-02 06:23:58,15.08840655,0.0001273,53.2122,233.2789,88.6007,271.5131,0.00010439,1.374e-05,0.0,0 STARLINK-4059,1 53250U 22086J   23033.26664571  .00001374  00000-0  10439-3 0  9996,2 53250  53.2122 233.2789 0001273  88.6007 271.5131 15.08840655 30272,6917.878,95.438,540.624,538.863,0.0
53250.0,STARLINK-4059,PAYLOAD,2023-02-03 12:36:17,15.08844103,0.0001598,53.2114,227.6284,84.8972,275.2202,0.00011555,1.552e-05,0.0,0 STARLINK-4059,1 53250U 22086J   23034.52520400  .00001552  00000-0  11555-3 0  9996,2 53250  53.2114 227.6284 0001598  84.8972 275.2202 15.08844103 30260,6917.868,95.437,540.838,538.627,0.0
53250.0,STARLINK-4059,PAYLOAD,2023-02-04 12:27:04,15.08841479,0.0001326,53.2132,223.1678,85.3755,274.7389,7.8305e-05,9.59e-06,0.0,0 STARLINK-4059,1 53250U 22086J   23035.51880520  .00000959  00000-0  78305-4 0  9995,2 53250  53.2132 223.1678 0001326  85.3755 274.7389 15.08841479 30412,6917.876,95.437,540.658,538.824,0.0
53250.0,STARLINK-4059,PAYLOAD,2023-02-04 21:59:23,15.0884059,0.0001243,53.2141,221.3837,84.9154,275.198,6.925e-05,8.14e-06,0.0,0 STARLINK-4059,1 53250U 22086J   23035.91624481  .00000814  00000-0  69250-4 0  9990,2 53250  53.2141 221.3837 0001243  84.9154 275.1980 15.08840590 30678,6917.879,95.438,540.603,538.884,0.0
53250.0,STARLINK-4059,PAYLOAD,2023-02-05 12:17:51,15.08839351,0.0001252,53.2138,218.7071,85.379,274.7345,5.2223e-05,5.43e-06,0.0,0 STARLINK-4059,1 53250U 22086J   23036.51240652  .00000543  00000-0  52223-4 0  9992,2 53250  53.2138 218.7071 0001252  85.3790 274.7345 15.08839351 30768,6917.882,95.438,540.613,538.881,0.0
53250.0,STARLINK-4059,PAYLOAD,2023-02-05 18:39:24,15.08841606,0.000125,53.2139,217.5174,86.1239,273.9896,6.3946e-05,7.3e-06,0.0,0 STARLINK-4059,1 53250U 22086J   23036.77736446  .00000730  00000-0  63946-4 0  9993,2 53250  53.2139 217.5174 0001250  86.1239 273.9896 15.08841606 30606,6917.875,95.437,540.605,538.876,0.0
53250.0,STARLINK-4059,PAYLOAD,2023-02-05 21:50:10,15.08840808,0.0001223,53.2142,216.9228,85.6999,274.4133,5.074e-05,5.2e-06,0.0,0 STARLINK-4059,1 53250U 22086J   23036.90984510  .00000520  00000-0  50740-4 0  9990,2 53250  53.2142 216.9228 0001223  85.6999 274.4133 15.08840808 30827,6917.878,95.438,540.589,538.897,0.0
53250.0,STARLINK-4059,PAYLOAD,2023-02-06 12:08:39,15.08837896,0.0001224,53.2143,214.2463,85.8054,274.3078,5.6461e-05,6.11e-06,0.0,0 STARLINK-4059,1 53250U 22086J   23037.50600783  .00000611  00000-0  56461-4 0  9991,2 53250  53.2143 214.2463 0001224  85.8054 274.3078 15.08837896 30915,6917.887,95.438,540.599,538.905,0.0
53250.0,STARLINK-4059,PAYLOAD,2023-02-06 18:30:11,15.08842143,0.0001166,53.2145,213.0569,84.6431,275.4695,8.6583e-05,1.09e-05,0.0,0 STARLINK-4059,1 53250U 22086J   23037.77096466  .00001090  00000-0  86583-4 0  9997,2 53250  53.2145 213.0569 0001166  84.6431 275.4695 15.08842143 30954,6917.874,95.437,540.545,538.932,0.0
53250.0,STARLINK-4059,PAYLOAD,2023-02-07 04:02:30,15.08841991,0.0001127,53.2144,211.2726,81.7532,278.3588,9.1529e-05,1.169e-05,0.0,0 STARLINK-4059,1 53250U 22086J   23038.16840495  .00001169  00000-0  91529-4 0  9993,2 53250  53.2144 211.2726 0001127  81.7532 278.3588 15.08841991 30813,6917.874,95.437,540.519,538.96,0.0
53250.0,STARLINK-4059,PAYLOAD,2023-02-07 11:59:25,15.08842651,0.000109,53.215,209.7862,84.3215,275.7901,8.0092e-05,9.87e-06,0.0,0 STARLINK-4059,1 53250U 22086J   23038.49960500  .00000987  00000-0  80092-4 0  9999,2 53250  53.2150 209.7862 0001090  84.3215 275.7901 15.08842651 31061,6917.872,95.437,540.491,538.983,0.0
53250.0,STARLINK-4059,PAYLOAD,2023-02-07 16:45:35,15.08846377,0.0001133,53.2151,208.8942,84.0427,276.0694,0.00010799,1.432e-05,0.0,0 STARLINK-4059,1 53250U 22086J   23038.69832199  .00001432  00000-0  10799-3 0  9995,2 53250  53.2151 208.8942 0001133  84.0427 276.0694 15.08846377 31096,6917.861,95.437,540.51,538.942,0.0
53250.0,STARLINK-4059,PAYLOAD,2023-02-08 11:50:13,15.08834818,0.0001435,53.2176,205.3268,99.1454,260.97,3.2012e-05,2.22e-06,0.0,0 STARLINK-4059,1 53250U 22086J   23039.49321182  .00000222  00000-0  32012-4 0  9998,2 53250  53.2176 205.3268 0001435  99.1454 260.9700 15.08834818 31017,6917.896,95.438,540.754,538.769,0.0
53250.0,STARLINK-4059,PAYLOAD,2023-02-08 18:11:45,15.08841156,0.0001262,53.2161,204.1369,95.4535,264.6601,5.5444e-05,5.95e-06,0.0,0 STARLINK-4059,1 53250U 22086J   23039.75816759  .00000595  00000-0  55444-4 0  9993,2 53250  53.2161 204.1369 0001262  95.4535 264.6601 15.08841156 31257,6917.877,95.437,540.615,538.869,0.0
53250.0,STARLINK-4059,PAYLOAD,2023-02-09 10:05:37,15.08834183,0.0001364,53.2159,201.1638,85.0463,275.0685,-5.0228e-05,-1.087e-05,0.0,0 STARLINK-4059,1 53250U 22086J   23040.42057037 -.00001087  00000-0 -50228-4 0  9999,2 53250  53.2159 201.1638 0001364  85.0463 275.0685 15.08834183 31359,6917.898,95.438,540.707,538.82,0.0
